Dispensary Name,Address,City,Zip Code,Type
Housing Works Cannabis Co,750 Broadway,New York,10003,Recreational
The Travel Agency Union Square,835 Broadway,New York,10011,Recreational
The Travel Agency Fifth Avenue,587 Fifth Avenue,New York,10017,Recreational
The Travel Agency SoHo,598 Broadway,New York,10012,Recreational
The Travel Agency Downtown Brooklyn,122 Flatbush Ave,Brooklyn,11217,Recreational
Smacked Village,144 Bleecker St,New York,10012,Recreational
Dazed Cannabis,33 Union Square W,New York,10003,Recreational
Gotham,3 E 3rd St,New York,10003,Recreational
NICKLZ NYC Dispensary,797 8th Ave,New York,10019,Recreational
VERDI,158 W 23rd St,New York,10011,Recreational
Good Grades,162-03 Jamaica Ave,Queens,11432,Recreational
Stoops NYC Fifth Avenue,182 5th Ave,New York,10010,Recreational
Stoops NYC Third Avenue,2412 Third Ave,Bronx,10458,Recreational
Stoops NYC Gerard Avenue,898 Gerard Ave,Bronx,10452,Recreational
Mighty Lucky,259 Bowery,New York,10002,Recreational
MedMen Fifth Avenue,433 5th Ave,New York,10016,Medical
MedMen Long Island,2001 Marcus Ave,New Hyde Park,11042,Medical
Curaleaf Queens,107-18 70th Rd,Forest Hills,11375,Medical & Recreational
Verilife Bronx,27 W Fordham Rd,Bronx,10468,Medical & Recreational
Verilife Buffalo,3760 Union Rd,Cheektowaga,14225,Medical & Recreational
Verilife East Syracuse,5841 Bridge St,East Syracuse,13057,Medical & Recreational
Verilife Albany,2 Wade Rd,Latham,12110,Medical & Recreational
The Botanist Farmingdale,2365 Broadhollow Rd,Farmingdale,11735,Medical
The Botanist Middletown,247 Dunning Rd,Middletown,10940,Medical
Sunnyside Williamsburg,178 North 4th St,Brooklyn,11211,Medical
Vireo Health Queens,89-55 Queens Blvd,Elmhurst,11373,Medical
Etain Yonkers,55 Main St,Yonkers,10701,Medical
Hibernica Cannabis,3220 Westchester Ave,Bronx,10461,Recreational
HUSH,2460 Williamsbridge Rd,Bronx,10469,Recreational
Gotham Buds,248 West 125th St,New York,10027,Recreational
Terp Bros Astoria,3610 Ditmars Blvd,Astoria,11105,Recreational
Silk Road NYC,166-30 Jamaica Ave,Jamaica,11435,Recreational
Silver Cannabis Company,10 Executive Park Dr,Albany,12203,Recreational
82-J Dispensary,1673 Hertel Ave,Buffalo,14216,Recreational
Secret Garden 716,1363 Delaware Ave,Buffalo,14209,Recreational
Herbal IQ Buffalo,6300 Transit Rd,Buffalo,14043,Recreational
Happy Goat Dispensary,1330 Mt Hope Ave,Rochester,14620,Recreational
Greenlakes Dispo,714 W Ridge Rd,Rochester,14615,Recreational
Shady Grove Dispensary,3047 W Henrietta Rd,Rochester,14623,Recreational
FingerLakes Cannabis Co,5 Railroad St,Rochester,14609,Recreational
Flower City Dispensary,8047-8053 Pittsford-Victor Rd,Victor,14564,Recreational
Native Haze Cannabis Co,1503 Canandaigua Rd,Macedon,14502,Recreational
Evergreen Retail,51 N Main St,Canandaigua,14424,Recreational
MJ Dispensary Rochester,900 Jefferson Rd Ste 902,Rochester,14623,Recreational
Capital District Wellness,997 Central Ave Ste 200,Albany,12205,Recreational
Green Genius NYC,New York,New York,10010,Recreational
Indoor Treez Midtown,New York,New York,10016,Recreational
Hii Dispensary Williamsburg,Brooklyn,Brooklyn,11211,Recreational
Hii Dispensary Bushwick,Brooklyn,Brooklyn,11237,Recreational
Hii Dispensary Downtown Brooklyn,Brooklyn,Brooklyn,11201,Recreational
Hii Dispensary DUMBO,Brooklyn,Brooklyn,11201,Recreational
Hii Dispensary Crown Heights,Brooklyn,Brooklyn,11213,Recreational
Matawana Brooklyn,533 5th Ave,Brooklyn,11215,Recreational
BK Exotic,1056 Flatbush Ave,Brooklyn,11226,Recreational
Chronic Brooklyn Gowanus,Brooklyn,Brooklyn,11231,Recreational
Route 20 Cannabis,Albany,Albany,12203,Recreational
Public Flower Buffalo,Buffalo,Buffalo,14202,Recreational
Premier Earth Buffalo,Buffalo,Buffalo,14202,Recreational
FlynnStoned Syracuse,Syracuse,Syracuse,13202,Recreational
FlynnStoned Rochester,Rochester,Rochester,14604,Recreational
FlynnStoned Binghamton,Binghamton,Binghamton,13901,Recreational
FlynnStoned Brooklyn,Brooklyn,Brooklyn,11211,Recreational
FlynnStoned Oswego,Oswego,Oswego,13126,Recreational
FlynnStoned North Syracuse,North Syracuse,North Syracuse,13212,Recreational
Flor de Fred,Queens,Queens,11416,Recreational
Qube NYC,New York,New York,10036,Recreational
Verdi Cannabis Williamsburg,Brooklyn,Brooklyn,11211,Recreational
Society House Brooklyn,Brooklyn,Brooklyn,11211,Recreational
Freshly Baked NYC,Queens,Queens,11101,Recreational
The Herbal Care,New York,New York,10028,Recreational
TPCO New York,New York,New York,10003,Recreational
Astor Club,New York,New York,10003,Recreational
PharmaCann Albany,Albany,Albany,12205,Medical
Vireo Health White Plains,221-223 E Post Rd,White Plains,10601,Medical
The Botanist Queens,138-72 Queens Blvd,Queens,11435,Medical
The Botanist Buffalo,192 Seneca St,Buffalo,14204,Medical
Cannabis Culture NYC,New York,New York,10014,Recreational
Empire Cannabis Club,New York,New York,10001,Recreational
NYC Cannabis Co,New York,New York,10011,Recreational
Brooklyn Cannabis Company,Brooklyn,Brooklyn,11222,Recreational
Queens Finest Cannabis,Queens,Queens,11101,Recreational
Bronx Green Room,Bronx,Bronx,10451,Recreational
Manhattan Wellness,New York,New York,10009,Recreational
Elevated NYC,New York,New York,10016,Recreational
Chelsea Cannabis,New York,New York,10011,Recreational
Tribeca Wellness,New York,New York,10013,Recreational
Upper West Side Dispensary,New York,New York,10025,Recreational
Harlem Cannabis Co,New York,New York,10027,Recreational
Brooklyn Heights Wellness,Brooklyn,Brooklyn,11201,Recreational
Park Slope Cannabis,Brooklyn,Brooklyn,11215,Recreational
Astoria Green,Astoria,Astoria,11102,Recreational
Flushing Cannabis Center,Flushing,Flushing,11354,Recreational
Long Island City Dispensary,Long Island City,Long Island City,11101,Recreational
Ridgewood Cannabis,Ridgewood,Ridgewood,11385,Recreational
Forest Hills Wellness,Forest Hills,Forest Hills,11375,Recreational
Rego Park Cannabis,Rego Park,Rego Park,11374,Recreational
Jackson Heights Dispensary,Jackson Heights,Jackson Heights,11372,Recreational
Woodside Cannabis Co,Woodside,Woodside,11377,Recreational
Corona Cannabis Center,Corona,Corona,11368,Recreational
Elmhurst Wellness,Elmhurst,Elmhurst,11373,Recreational
Bronx Cannabis Hub,Bronx,Bronx,10453,Recreational
Mott Haven Dispensary,Bronx,Bronx,10451,Recreational
Riverdale Cannabis,Bronx,Bronx,10463,Recreational
Kingsbridge Wellness,Bronx,Bronx,10463,Recreational
Bedford Stuyvesant Cannabis,Brooklyn,Brooklyn,11216,Recreational
Bushwick Green,Brooklyn,Brooklyn,11237,Recreational
Sunset Park Dispensary,Brooklyn,Brooklyn,11220,Recreational
Bay Ridge Cannabis,Brooklyn,Brooklyn,11209,Recreational
Bensonhurst Wellness,Brooklyn,Brooklyn,11214,Recreational
Coney Island Cannabis,Brooklyn,Brooklyn,11224,Recreational
Canarsie Dispensary,Brooklyn,Brooklyn,11236,Recreational
East New York Cannabis,Brooklyn,Brooklyn,11207,Recreational
Brownsville Wellness,Brooklyn,Brooklyn,11212,Recreational
Flatbush Cannabis Co,Brooklyn,Brooklyn,11226,Recreational
Sheepshead Bay Dispensary,Brooklyn,Brooklyn,11235,Recreational
Brighton Beach Cannabis,Brooklyn,Brooklyn,11235,Recreational
Greenpoint Wellness,Brooklyn,Brooklyn,11222,Recreational
East Village Cannabis,New York,New York,10009,Recreational
West Village Wellness,New York,New York,10014,Recreational
Greenwich Village Dispensary,New York,New York,10011,Recreational
NoHo Cannabis,New York,New York,10012,Recreational
Nolita Wellness,New York,New York,10012,Recreational
Little Italy Cannabis,New York,New York,10013,Recreational
Chinatown Dispensary,New York,New York,10013,Recreational
Financial District Cannabis,New York,New York,10004,Recreational
Battery Park Wellness,New York,New York,10280,Recreational
Gramercy Cannabis,New York,New York,10010,Recreational
Flatiron Dispensary,New York,New York,10010,Recreational
Murray Hill Cannabis,New York,New York,10016,Recreational
Kips Bay Wellness,New York,New York,10016,Recreational
Midtown East Cannabis,New York,New York,10017,Recreational
Midtown West Dispensary,New York,New York,10019,Recreational
Hell's Kitchen Cannabis,New York,New York,10019,Recreational
Columbus Circle Wellness,New York,New York,10023,Recreational
Lincoln Center Dispensary,New York,New York,10023,Recreational
Upper East Side Cannabis,New York,New York,10021,Recreational
Yorkville Wellness,New York,New York,10028,Recreational
Morningside Heights Dispensary,New York,New York,10025,Recreational
Washington Heights Cannabis,New York,New York,10033,Recreational
Inwood Wellness,New York,New York,10034,Recreational
Roosevelt Island Dispensary,New York,New York,10044,Recreational
Syracuse Downtown Cannabis,Syracuse,Syracuse,13202,Recreational
Syracuse University Area Dispensary,Syracuse,Syracuse,13210,Recreational
North Syracuse Wellness,North Syracuse,North Syracuse,13212,Recreational
Liverpool Cannabis,Liverpool,Liverpool,13088,Recreational
Albany Downtown Dispensary,Albany,Albany,12207,Recreational
Albany Medical Center Area Cannabis,Albany,Albany,12208,Recreational
Colonie Wellness,Colonie,Colonie,12205,Recreational
Troy Cannabis,Troy,Troy,12180,Recreational
Schenectady Dispensary,Schenectady,Schenectady,12305,Recreational
Saratoga Springs Cannabis,Saratoga Springs,Saratoga Springs,12866,Recreational
Buffalo Downtown Dispensary,Buffalo,Buffalo,14203,Recreational
Buffalo Elmwood Village Cannabis,Buffalo,Buffalo,14222,Recreational
Niagara Falls Wellness,Niagara Falls,Niagara Falls,14301,Recreational
Tonawanda Cannabis,Tonawanda,Tonawanda,14150,Recreational
Amherst Dispensary,Amherst,Amherst,14226,Recreational